start=new Date('2022-09-24T00:00:00.000Z').valueOf();
sats=[{"REV_AT_EPOCH":"130","TLE_LINE1":"1 53276U 22086AL  22266.91667824 -.01046318  00000-0 -92244-2 0  9990","ECCENTRICITY":"0.00067710","OBJECT_TYPE":"PAYLOAD","MEAN_MOTION_DDOT":"0.0000000000000","MEAN_ELEMENT_THEORY":"SGP4","TLE_LINE2":"2 53276  53.2170  99.5488 0006771 271.8661 144.1019 15.70593260  1300","MEAN_MOTION":"15.70593260","DECAY_DATE":null,"MEAN_ANOMALY":"144.1019","ARG_OF_PERICENTER":"271.8661","REF_FRAME":"TEME","OBJECT_NAME":"STARLINK-4174","PERIAPSIS":"352.642","RA_OF_ASC_NODE":"99.5488","INCLINATION":"53.2170","TIME_SYSTEM":"UTC","OBJECT_ID":"2022-086AL","RCS_SIZE":"LARGE","GP_ID":"213337011","SEMIMAJOR_AXIS":"6735.337","SITE":"AFETR","LAUNCH_DATE":"2022-07-24","PERIOD":"91.685","CLASSIFICATION_TYPE":"U","MEAN_MOTION_DOT":"-0.01046318","ELEMENT_SET_NO":"999","NORAD_CAT_ID":"53276","COUNTRY_CODE":"US","BSTAR":"-0.00922440000000","APOAPSIS":"361.763","EPHEMERIS_TYPE":"0","EPOCH":"2022-09-23T22:00:00.999936","FILE":"3581681","CENTER_NAME":"EARTH"},{"EPOCH":"2022-09-23T22:00:00.999936","FILE":"3581681","CENTER_NAME":"EARTH","BSTAR":"-0.00947890000000","COUNTRY_CODE":"US","APOAPSIS":"358.022","EPHEMERIS_TYPE":"0","MEAN_MOTION_DOT":"-0.01071546","ELEMENT_SET_NO":"999","NORAD_CAT_ID":"53277","PERIOD":"91.682","CLASSIFICATION_TYPE":"U","LAUNCH_DATE":"2022-07-24","OBJECT_ID":"2022-086AM","INCLINATION":"53.2174","TIME_SYSTEM":"UTC","RCS_SIZE":"LARGE","SEMIMAJOR_AXIS":"6735.185","GP_ID":"213337579","SITE":"AFETR","REF_FRAME":"TEME","PERIAPSIS":"356.078","OBJECT_NAME":"STARLINK-4178","RA_OF_ASC_NODE":"99.5498","MEAN_MOTION":"15.70646529","MEAN_ELEMENT_THEORY":"SGP4","TLE_LINE2":"2 53277  53.2174  99.5498 0001443  26.9683  32.1105 15.70646529  1309","DECAY_DATE":null,"MEAN_ANOMALY":"32.1105","ARG_OF_PERICENTER":"26.9683","REV_AT_EPOCH":"130","ECCENTRICITY":"0.00014430","TLE_LINE1":"1 53277U 22086AM  22266.91667824 -.01071546  00000-0 -94789-2 0  9998","OBJECT_TYPE":"PAYLOAD","MEAN_MOTION_DDOT":"0.0000000000000"},{"NORAD_CAT_ID":"53278","ELEMENT_SET_NO":"999","MEAN_MOTION_DOT":"-0.01072480","LAUNCH_DATE":"2022-07-24","CLASSIFICATION_TYPE":"U","PERIOD":"91.683","CENTER_NAME":"EARTH","FILE":"3581681","EPOCH":"2022-09-23T22:00:00.999936","EPHEMERIS_TYPE":"0","APOAPSIS":"358.036","COUNTRY_CODE":"US","BSTAR":"-0.00949350000000","ARG_OF_PERICENTER":"9.5337","MEAN_ANOMALY":"48.2983","DECAY_DATE":null,"TLE_LINE2":"2 53278  53.2174  99.5485 0001408   9.5337  48.2983 15.70633387  1300","MEAN_ELEMENT_THEORY":"SGP4","MEAN_MOTION":"15.70633387","MEAN_MOTION_DDOT":"0.0000000000000","OBJECT_TYPE":"PAYLOAD","TLE_LINE1":"1 53278U 22086AN  22266.91667824 -.01072480  00000-0 -94935-2 0  9990","ECCENTRICITY":"0.00014080","REV_AT_EPOCH":"130","GP_ID":"213337415","SITE":"AFETR","SEMIMAJOR_AXIS":"6735.223","RCS_SIZE":"LARGE","INCLINATION":"53.2174","TIME_SYSTEM":"UTC","OBJECT_ID":"2022-086AN","RA_OF_ASC_NODE":"99.5485","OBJECT_NAME":"STARLINK-4180","PERIAPSIS":"356.139","REF_FRAME":"TEME"},{"SEMIMAJOR_AXIS":"6737.185","GP_ID":"213336847","SITE":"AFETR","OBJECT_ID":"2022-086AQ","INCLINATION":"53.2178","TIME_SYSTEM":"UTC","RCS_SIZE":"LARGE","PERIAPSIS":"358.600","OBJECT_NAME":"STARLINK-4169","RA_OF_ASC_NODE":"99.5473","REF_FRAME":"TEME","ARG_OF_PERICENTER":"7.1957","MEAN_MOTION":"15.69947180","MEAN_ELEMENT_THEORY":"SGP4","TLE_LINE2":"2 53280  53.2178  99.5473 0000668   7.1957  51.6531 15.69947180  1307","MEAN_ANOMALY":"51.6531","DECAY_DATE":null,"TLE_LINE1":"1 53280U 22086AQ  22266.91667824 -.00163259  00000-0 -13560-2 0  9992","OBJECT_TYPE":"PAYLOAD","ECCENTRICITY":"0.00006680","MEAN_MOTION_DDOT":"0.0000000000000","REV_AT_EPOCH":"130","FILE":"3581681","CENTER_NAME":"EARTH","EPOCH":"2022-09-23T22:00:00.999936","APOAPSIS":"359.500","EPHEMERIS_TYPE":"0","BSTAR":"-0.00135600000000","COUNTRY_CODE":"US","ELEMENT_SET_NO":"999","NORAD_CAT_ID":"53280","MEAN_MOTION_DOT":"-0.00163259","PERIOD":"91.723","CLASSIFICATION_TYPE":"U","LAUNCH_DATE":"2022-07-24"},{"NORAD_CAT_ID":"53281","ELEMENT_SET_NO":"999","MEAN_MOTION_DOT":"-0.01065570","LAUNCH_DATE":"2022-07-24","CLASSIFICATION_TYPE":"U","PERIOD":"91.681","CENTER_NAME":"EARTH","FILE":"3581681","EPOCH":"2022-09-23T22:00:00.999936","EPHEMERIS_TYPE":"0","APOAPSIS":"361.247","COUNTRY_CODE":"US","BSTAR":"-0.00938950000000","ARG_OF_PERICENTER":"271.0239","MEAN_ANOMALY":"149.9299","DECAY_DATE":null,"MEAN_ELEMENT_THEORY":"SGP4","TLE_LINE2":"2 53281  53.2175  99.5478 0006290 271.0239 149.9299 15.70660349  1305","MEAN_MOTION":"15.70660349","MEAN_MOTION_DDOT":"0.0000000000000","ECCENTRICITY":"0.00062900","TLE_LINE1":"1 53281U 22086AR  22266.91667824 -.01065570  00000-0 -93895-2 0  9990","OBJECT_TYPE":"PAYLOAD","REV_AT_EPOCH":"130","SITE":"AFETR","GP_ID":"213336596","SEMIMAJOR_AXIS":"6735.146","RCS_SIZE":"LARGE","INCLINATION":"53.2175","TIME_SYSTEM":"UTC","OBJECT_ID":"2022-086AR","RA_OF_ASC_NODE":"99.5478","OBJECT_NAME":"STARLINK-4182","PERIAPSIS":"352.774","REF_FRAME":"TEME"},{"MEAN_MOTION_DOT":"-0.01081466","ELEMENT_SET_NO":"999","NORAD_CAT_ID":"53282","CLASSIFICATION_TYPE":"U","PERIOD":"91.681","LAUNCH_DATE":"2022-07-24","EPOCH":"2022-09-23T22:00:00.999936","FILE":"3581681","CENTER_NAME":"EARTH","BSTAR":"-0.00957140000000","COUNTRY_CODE":"US","APOAPSIS":"357.907","EPHEMERIS_TYPE":"0","MEAN_MOTION":"15.70660769","MEAN_ELEMENT_THEORY":"SGP4","TLE_LINE2":"2 53282  53.2172  99.5489 0001333  23.6044  36.0940 15.70660769  1308","MEAN_ANOMALY":"36.0940","DECAY_DATE":null,"ARG_OF_PERICENTER":"23.6044","REV_AT_EPOCH":"130","TLE_LINE1":"1 53282U 22086AS  22266.91667824 -.01081466  00000-0 -95714-2 0  9995","OBJECT_TYPE":"PAYLOAD","ECCENTRICITY":"0.00013330","MEAN_MOTION_DDOT":"0.0000000000000","OBJECT_ID":"2022-086AS","INCLINATION":"53.2172","TIME_SYSTEM":"UTC","RCS_SIZE":"LARGE","SITE":"AFETR","GP_ID":"213337340","SEMIMAJOR_AXIS":"6735.144","REF_FRAME":"TEME","PERIAPSIS":"356.112","OBJECT_NAME":"STARLINK-4164","RA_OF_ASC_NODE":"99.5489"},{"APOAPSIS":"357.638","EPHEMERIS_TYPE":"0","COUNTRY_CODE":"US","BSTAR":"-0.00971040000000","FILE":"3581681","CENTER_NAME":"EARTH","EPOCH":"2022-09-23T22:00:00.999936","LAUNCH_DATE":"2022-07-24","PERIOD":"91.679","CLASSIFICATION_TYPE":"U","ELEMENT_SET_NO":"999","NORAD_CAT_ID":"53283","MEAN_MOTION_DOT":"-0.01096878","OBJECT_NAME":"STARLINK-4175","PERIAPSIS":"356.182","RA_OF_ASC_NODE":"99.5520","REF_FRAME":"TEME","GP_ID":"213337176","SEMIMAJOR_AXIS":"6735.045","SITE":"AFETR","INCLINATION":"53.2172","TIME_SYSTEM":"UTC","OBJECT_ID":"2022-086AT","RCS_SIZE":"LARGE","OBJECT_TYPE":"PAYLOAD","TLE_LINE1":"1 53283U 22086AT  22266.91667824 -.01096878  00000-0 -97104-2 0  9994","ECCENTRICITY":"0.00010810","MEAN_MOTION_DDOT":"0.0000000000000","REV_AT_EPOCH":"130","ARG_OF_PERICENTER":"354.2801","TLE_LINE2":"2 53283  53.2172  99.5520 0001081 354.2801  67.2775 15.70695657  1305","MEAN_ELEMENT_THEORY":"SGP4","MEAN_MOTION":"15.70695657","DECAY_DATE":null,"MEAN_ANOMALY":"67.2775"},{"APOAPSIS":"357.824","EPHEMERIS_TYPE":"0","COUNTRY_CODE":"US","BSTAR":"-0.00969570000000","FILE":"3581681","CENTER_NAME":"EARTH","EPOCH":"2022-09-23T22:00:00.999936","LAUNCH_DATE":"2022-07-24","CLASSIFICATION_TYPE":"U","PERIOD":"91.680","ELEMENT_SET_NO":"999","NORAD_CAT_ID":"53284","MEAN_MOTION_DOT":"-0.01094846","OBJECT_NAME":"STARLINK-4172","PERIAPSIS":"356.082","RA_OF_ASC_NODE":"99.5501","REF_FRAME":"TEME","GP_ID":"213336433","SEMIMAJOR_AXIS":"6735.088","SITE":"AFETR","INCLINATION":"53.2174","TIME_SYSTEM":"UTC","OBJECT_ID":"2022-086AU","RCS_SIZE":"LARGE","ECCENTRICITY":"0.00012930","TLE_LINE1":"1 53284U 22086AU  22266.91667824 -.01094846  00000-0 -96957-2 0  9993","OBJECT_TYPE":"PAYLOAD","MEAN_MOTION_DDOT":"0.0000000000000","REV_AT_EPOCH":"130","ARG_OF_PERICENTER":"16.8300","TLE_LINE2":"2 53284  53.2174  99.5501 0001293  16.8300  43.4823 15.70680507  1305","MEAN_ELEMENT_THEORY":"SGP4","MEAN_MOTION":"15.70680507","DECAY_DATE":null,"MEAN_ANOMALY":"43.4823"},{"EPOCH":"2022-09-23T22:00:00.999936","CENTER_NAME":"EARTH","FILE":"3581681","COUNTRY_CODE":"US","BSTAR":"-0.00961250000000","EPHEMERIS_TYPE":"0","APOAPSIS":"357.852","MEAN_MOTION_DOT":"-0.01087691","NORAD_CAT_ID":"53285","ELEMENT_SET_NO":"999","LAUNCH_DATE":"2022-07-24","PERIOD":"91.678","CLASSIFICATION_TYPE":"U","RCS_SIZE":"LARGE","INCLINATION":"53.2172","TIME_SYSTEM":"UTC","OBJECT_ID":"2022-086AV","GP_ID":"213337012","SEMIMAJOR_AXIS":"6735.005","SITE":"AFETR","REF_FRAME":"TEME","RA_OF_ASC_NODE":"99.5535","OBJECT_NAME":"STARLINK-4173","PERIAPSIS":"355.887","MEAN_ANOMALY":"37.7242","DECAY_DATE":null,"TLE_LINE2":"2 53285  53.2172  99.5535 0001459  25.7053  37.7242 15.70709623  1301","MEAN_ELEMENT_THEORY":"SGP4","MEAN_MOTION":"15.70709623","ARG_OF_PERICENTER":"25.7053","REV_AT_EPOCH":"130","MEAN_MOTION_DDOT":"0.0000000000000","ECCENTRICITY":"0.00014590","TLE_LINE1":"1 53285U 22086AV  22266.91667824 -.01087691  00000-0 -96125-2 0  9991","OBJECT_TYPE":"PAYLOAD"},{"MEAN_MOTION_DOT":"-0.01061253","NORAD_CAT_ID":"53286","ELEMENT_SET_NO":"999","LAUNCH_DATE":"2022-07-24","PERIOD":"91.681","CLASSIFICATION_TYPE":"U","EPOCH":"2022-09-23T22:00:00.999936","CENTER_NAME":"EARTH","FILE":"3581681","COUNTRY_CODE":"US","BSTAR":"-0.00936770000000","EPHEMERIS_TYPE":"0","APOAPSIS":"357.987","DECAY_DATE":null,"MEAN_ANOMALY":"20.5461","MEAN_ELEMENT_THEORY":"SGP4","TLE_LINE2":"2 53286  53.2173  99.5522 0001495  41.6541  20.5461 15.70671045  1307","MEAN_MOTION":"15.70671045","ARG_OF_PERICENTER":"41.6541","REV_AT_EPOCH":"130","MEAN_MOTION_DDOT":"0.0000000000000","OBJECT_TYPE":"PAYLOAD","TLE_LINE1":"1 53286U 22086AW  22266.91667824 -.01061253  00000-0 -93677-2 0  9997","ECCENTRICITY":"0.00014950","RCS_SIZE":"LARGE","INCLINATION":"53.2173","TIME_SYSTEM":"UTC","OBJECT_ID":"2022-086AW","GP_ID":"213337580","SEMIMAJOR_AXIS":"6735.115","SITE":"AFETR","REF_FRAME":"TEME","RA_OF_ASC_NODE":"99.5522","OBJECT_NAME":"STARLINK-4165","PERIAPSIS":"355.973"}];
